GOES 18                 
1 51850U 22021A   26065.19789509  .00000091  00000+0  00000+0 0  9991
2 51850   0.0342  75.4754 0000729 328.9257  53.7507  1.00272933  5566
GOES 19                 
1 60133U 24119A   26065.06754785 -.00000254  00000+0  00000+0 0  9991
2 60133   0.0063  87.2880 0001074 300.4838  85.1354  1.00271600  5935
